STARLINK-30809          
1 58183U 23167J   26068.24817766 -.00001327  00000+0 -39802-4 0  9997
2 58183  42.9975 146.2274 0001139 269.5807  90.4914 15.26736298130910
FALCONSAT-10            
1 58291U 23174AM  26068.70247784  .00006748  00000+0  25969-3 0  9991
2 58291  97.3865 145.7938 0008932 169.5942 190.5483 15.26670596129582
